[{"OBJECT_NAME":"YAOGAN-30 02B","OBJECT_ID":"2017-058B","EPOCH":"2026-03-09T22:20:48.449184","MEAN_MOTION":15.02255785,"ECCENTRICITY":0.00019399,"INCLINATION":34.9967,"RA_OF_ASC_NODE":274.9762,"ARG_OF_PERICENTER":191.875,"MEAN_ANOMALY":168.1912,"EPHEMERIS_TYPE":0,"CLASSIFICATION_TYPE":"U","NORAD_CAT_ID":42946,"ELEMENT_SET_NO":999,"REV_AT_EPOCH":46092,"BSTAR":0.0003113928,"MEAN_MOTION_DOT":4.165e-5,"MEAN_MOTION_DDOT":0},{"OBJECT_NAME":"STARLINK-5910","OBJECT_ID":"2023-042Q","EPOCH":"2026-03-09T22:55:07.408704","MEAN_MOTION":15.02514873,"ECCENTRICITY":0.00013502,"INCLINATION":43.004,"RA_OF_ASC_NODE":54.3772,"ARG_OF_PERICENTER":276.301,"MEAN_ANOMALY":83.7679,"EPHEMERIS_TYPE":0,"CLASSIFICATION_TYPE":"U","NORAD_CAT_ID":56000,"ELEMENT_SET_NO":999,"REV_AT_EPOCH":16295,"BSTAR":-0.00016727144,"MEAN_MOTION_DOT":-2.461e-5,"MEAN_MOTION_DDOT":0}]
